BEIDOU-2 IGSO-1 (C06)   
1 36828U 10036A   24011.86299237 -.00000091  00000+0  00000+0 0  9990
2 36828  54.2456 170.9920 0038732 191.6102 167.6359  1.00272256 49326
BEIDOU-2 G4 (C04)       
1 37210U 10057A   24011.89836611 -.00000100  00000+0  00000+0 0  9996
2 37210   1.4715  65.8042 0007374 192.1987 336.3631  1.00271910 48396
BEIDOU-2 IGSO-2 (C07)   
1 37256U 10068A   24011.67521039 -.00000168  00000+0  00000+0 0  9993
2 37256  49.1693 282.7393 0031750 215.1563 320.3051  1.00300408 47898
BEIDOU-2 IGSO-3 (C08)   
1 37384U 11013A   24012.03087979 -.00000156  00000+0  00000+0 0  9994
2 37384  61.1248  48.6309 0029186 183.5175 355.4463  1.00298009 46778
BEIDOU-2 IGSO-4 (C09)   
1 37763U 11038A   24009.43591229  .00000066  00000+0  00000+0 0  9999
2 37763  54.5532 173.5941 0116672 226.4320 318.6048  1.00292143 45713
BEIDOU-2 IGSO-5 (C10)   
1 37948U 11073A   24011.73139416 -.00000122  00000+0  00000+0 0  9999
2 37948  49.2986 282.4169 0094123 221.1791 324.6184  1.00286673 44239
BEIDOU-2 G5 (C05)       
1 38091U 12008A   24012.09310104  .00000068  00000+0  00000+0 0  9991
2 38091   2.0214  70.2631 0008889 216.5983 276.4236  1.00272971 43587
BEIDOU-2 M3 (C11)       
1 38250U 12018A   24011.06775140 -.00000068  00000+0  00000+0 0  9991
2 38250  56.4398 334.6001 0024617 265.9238  93.7877  1.86231118 79409
BEIDOU-2 M4 (C12)       
1 38251U 12018B   24011.53559608 -.00000068  00000+0  00000+0 0  9993
2 38251  56.3484 333.8681 0015595 270.8326  88.9820  1.86231863 79410
BEIDOU-2 M6 (C14)       
1 38775U 12050B   24008.56049923 -.00000030  00000+0  00000+0 0  9992
2 38775  55.7863  92.5379 0011957 328.6428  31.3121  1.86231001 76722
BEIDOU-2 G6 (C02)       
1 38953U 12059A   24011.88331116 -.00000163  00000+0  00000+0 0  9993
2 38953   2.1578  81.4988 0009496 289.7200 141.5851  1.00268160 41012
BEIDOU-3S IGSO-1S (C31) 
1 40549U 15019A   24011.76876425 -.00000173  00000+0  00000+0 0  9991
2 40549  50.8657 306.0505 0035382 195.3168 341.3989  1.00283531 32171
BEIDOU-3S M2S (C58)     
1 40748U 15037A   24011.20022900 -.00000069  00000+0  00000+0 0  9996
2 40748  55.5849 332.3989 0011811 263.0284  96.8313  1.86232923 57586
BEIDOU-3S M1S (C57)     
1 40749U 15037B   24006.10098478 -.00000076  00000+0  00000+0 0  9991
2 40749  55.5917 332.5584 0006901 319.9014  40.0467  1.86232979 57494
BEIDOU-3S IGSO-2S (C56) 
1 40938U 15053A   24011.66978380 -.00000076  00000+0  00000+0 0  9995
2 40938  50.6038 269.2453 0045835 192.3671 343.3390  1.00253688 30453
BEIDOU-2 IGSO-6 (C13)   
1 41434U 16021A   24007.06785706 -.00000137  00000+0  00000+0 0  9998
2 41434  58.9308  46.9932 0050003 224.7399 312.7488  1.00258973 28534
BEIDOU-2 G7 (C03)       
1 41586U 16037A   24012.08590779 -.00000343  00000+0  00000+0 0  9994
2 41586   1.5312  67.0841 0009151 317.5181 227.8886  1.00276405 27887
BEIDOU-3 M1 (C19)       
1 43001U 17069A   24011.01147882 -.00000016  00000+0  00000+0 0  9996
2 43001  55.9388  92.5319 0010159 290.0081  69.9205  1.86231104 42062
BEIDOU-3 M2 (C20)       
1 43002U 17069B   24008.80059806 -.00000029  00000+0  00000+0 0  9992
2 43002  55.9368  92.6414 0007269 312.2552  47.7101  1.86230988 42019
BEIDOU-3 M7 (C27)       
1 43107U 18003A   24008.55074185 -.00000073  00000+0  00000+0 0  9995
2 43107  55.0442 333.1499 0003452  45.1776 314.8461  1.86232288 40778
BEIDOU-3 M8 (C28)       
1 43108U 18003B   24006.34205909 -.00000076  00000+0  00000+0 0  9994
2 43108  55.0386 333.2121 0004683 272.1329  87.8126  1.86230876 40734
BEIDOU-3 M4 (C22)       
1 43207U 18018A   24010.54256170 -.00000019  00000+0  00000+0 0  9990
2 43207  55.8973  92.6423 0004151 337.6660  22.3509  1.86231091 40199
BEIDOU-3 M3 (C21)       
1 43208U 18018B   24011.68308928 -.00000012  00000+0  00000+0 0  9999
2 43208  55.8976  92.6084 0007567 298.9978  60.9679  1.86231203 40215
BEIDOU-3 M9 (C29)       
1 43245U 18029A   24008.14661686 -.00000073  00000+0  00000+0 0  9999
2 43245  54.9344 330.8871 0001882 296.0892  63.8875  1.86232498 39309
BEIDOU-3 M10 (C30)      
1 43246U 18029B   24008.61343165 -.00000072  00000+0  00000+0 0  9990
2 43246  54.9306 330.8989 0004726 348.4306  11.5539  1.86232651 39308
BEIDOU-2 IGSO-7 (C16)   
1 43539U 18057A   24010.86206958 -.00000075  00000+0  00000+0 0  9997
2 43539  55.1290 170.7303 0064938 228.9651 129.2611  1.00244014 20237
BEIDOU-3 M5 (C23)       
1 43581U 18062A   24009.90824054  .00000123  00000+0  00000+0 0  9999
2 43581  54.1541 212.5615 0001837 350.0366  10.0238  1.86228693 37073
BEIDOU-3 M6 (C24)       
1 43582U 18062B   24010.84870939  .00000114  00000+0  00000+0 0  9998
2 43582  54.1538 212.5189 0007262  38.6262 321.4841  1.86229648 37090
BEIDOU-3 M12 (C26)      
1 43602U 18067A   24011.32075894  .00000108  00000+0  00000+0 0  9990
2 43602  54.2428 211.1696 0008255  30.6740 329.4263  1.86231530 36588
BEIDOU-3 M11 (C25)      
1 43603U 18067B   24010.91766243  .00000113  00000+0  00000+0 0  9996
2 43603  54.2398 211.1488 0004957  27.8698 332.2118  1.86231485 36602
BEIDOU-3 M13 (C32)      
1 43622U 18072A   24009.80336019 -.00000023  00000+0  00000+0 0  9994
2 43622  55.8671  92.2025 0006865 283.7384  76.2171  1.86230886 36095
BEIDOU-3 M14 (C33)      
1 43623U 18072B   24009.13185219 -.00000027  00000+0  00000+0 0  9999
2 43623  55.8684  92.2179 0004043 305.1355  54.8555  1.86231044 36076
BEIDOU-3 M16 (C35)      
1 43647U 18078A   24011.98006106 -.00000069  00000+0  00000+0 0  9990
2 43647  54.8273 330.8664 0007727   3.1714 356.8290  1.86232076 35640
BEIDOU-3 M15 (C34)      
1 43648U 18078B   24010.49831427 -.00000069  00000+0  00000+0 0  9998
2 43648  54.8241 330.9209 0004616   4.1033 355.8948  1.86231980 35621
BEIDOU-3 G1 (C59)       
1 43683U 18085A   24011.89445008 -.00000269  00000+0  00000+0 0  9998
2 43683   1.8132 116.6623 0001345 345.5373 110.6015  1.00264860 19167
BEIDOU-3 M17 (C36)      
1 43706U 18093A   24010.64661822  .00000116  00000+0  00000+0 0  9999
2 43706  54.2366 212.4628 0006325 295.6830  64.3114  1.86228269 34990
BEIDOU-3 M18 (C37)      
1 43707U 18093B   24008.90236080  .00000130  00000+0  00000+0 0  9996
2 43707  54.2377 212.5143 0006237 336.4277  23.6114  1.86229857 34955
BEIDOU-3 IGSO-1 (C38)   
1 44204U 19023A   23359.85561811 -.00000224  00000+0  00000+0 0  9993
2 44204  57.3835  47.0551 0023834 204.1671 266.3544  1.00248909 17270
BEIDOU-2 G8 (C01)       
1 44231U 19027A   24011.89532031 -.00000236  00000+0  00000+0 0  9992
2 44231   1.5600  72.5125 0004054 177.1648 328.0808  1.00269597 17182
BEIDOU-3 IGSO-2 (C39)   
1 44337U 19035A   24011.81874029 -.00000105  00000+0  00000+0 0  9991
2 44337  55.1675 166.6501 0031362 200.2195 156.9630  1.00289738 16769
BEIDOU-3 M24 (C46)      
1 44542U 19061A   24011.12083394  .00000111  00000+0  00000+0 0  9995
2 44542  54.4642 212.7017 0008726  12.1407 347.9374  1.86231339 29255
BEIDOU-3 M23 (C45)      
1 44543U 19061B   24012.06264308  .00000101  00000+0  00000+0 0  9995
2 44543  54.4625 212.6390 0005498  11.5726 171.9943  1.86231672 29268
BEIDOU-3 IGSO-3 (C40)   
1 44709U 19073A   24011.17622309 -.00000176  00000+0  00000+0 0  9995
2 44709  56.3179 290.3971 0034866 182.6051 177.4357  1.00297773 15554
BEIDOU-3 M22 (C44)      
1 44793U 19078A   24011.50326534 -.00000069  00000+0  00000+0 0  9992
2 44793  54.6759 330.8342 0006588   8.0744 351.9313  1.86231859 28118
BEIDOU-3 M21 (C43)      
1 44794U 19078B   24008.41179622 -.00000073  00000+0  00000+0 0  9998
2 44794  54.6517 330.9207 0004662 356.3207   3.6716  1.86232463 28060
BEIDOU-3 M19 (C41)      
1 44864U 19090A   24010.80350413 -.00000017  00000+0  00000+0 0  9993
2 44864  55.8019  92.3494 0018205 274.0908  82.8448  1.86231407 27682
BEIDOU-3 M20 (C42)      
1 44865U 19090B   24011.22400611 -.00000015  00000+0  00000+0 0  9995
2 44865  55.8040  92.3683 0015713 286.2950  82.3341  1.86231350 27684
BEIDOU-3 G2 (C60)       
1 45344U 20017A   24012.09702250 -.00000130  00000+0  00000+0 0  9997
2 45344   2.1450  22.8318 0002857 252.5799 310.6366  1.00271646 14376
BEIDOU-3 G3 (C61)       
1 45807U 20040A   24011.90674285 -.00000342  00000+0  00000+0 0  9997
2 45807   0.5892  14.0389 0008980 300.5233 233.3342  1.00273173 13172
BEIDOU-3 G4             
1 56564U 23066A   24012.11329032 -.00000096  00000+0  00000+0 0  9997
2 56564   2.5166 288.3099 0003243 228.1408 155.5381  1.00271252  2510
BEIDOU-3 M25            
1 58654U 23207A   24010.60278281 -.00000020  00000+0  00000+0 0  9994
2 58654  54.9818  92.4790 0117519 178.9635 181.0945  1.82957602   298
BEIDOU-3 M26            
1 58655U 23207B   24005.84694770 -.00000037  00000+0  00000+0 0  9998
2 58655  54.6471  92.7627 0316732  68.9835  87.0455  1.85607573   193
